CZ-6A DEB               
1 54293U 22151AL  22335.77397150  .00000316  00000+0  16217-3 0  9997
2 54293  98.8160 340.8395 0040137 264.4895  95.1704 14.21957751  2259
CZ-6A DEB               
1 54294U 22151AM  22335.75329504  .00003141  00000+0  71031-3 0  9998
2 54294  98.8530 341.9301 0162653 224.3222 134.4852 14.49157563  2295
CZ-6A DEB               
1 54295U 22151AN  22335.68133664  .00002441  00000+0  11452-2 0  9993
2 54295  98.7429 340.0560 0174474 296.5468  61.7911 14.13342667  2230
CZ-6A DEB               
1 54296U 22151AP  22335.58395717  .00001064  00000+0  46606-3 0  9992
2 54296  98.8685 341.0723 0032760 198.7364 161.2611 14.25592842  2235
CZ-6A DEB               
1 54297U 22151AQ  22335.28449111  .00000804  00000+0  38443-3 0  9999
2 54297  98.7536 339.9809 0027437 142.4982 217.8116 14.21738658  2194
CZ-6A DEB               
1 54298U 22151AR  22335.28838532  .00000218  00000+0  15718-3 0  9998
2 54298  98.7652 339.5579 0063020  37.5601 322.9944 14.05682221  2175
CZ-6A DEB               
1 54299U 22151AS  22335.77042926 -.00000077  00000+0 -20266-4 0  9997
2 54299  98.8129 340.3394 0055410  26.4640 333.9340 14.06844156  2210
CZ-6A DEB               
1 54300U 22151AT  22335.76825510  .00000661  00000+0  41487-3 0  9991
2 54300  98.9039 340.8712 0060971 352.6432   7.3837 14.07012619  2219
CZ-6A DEB               
1 54301U 22151AU  22335.76519100  .00000328  00000+0  21846-3 0  9994
2 54301  98.9029 340.8690 0056854 359.8770   0.2375 14.07226425  2214
CZ-6A DEB               
1 54302U 22151AV  22335.57029482  .00001886  00000+0  46814-3 0  9995
2 54302  98.9634 342.3330 0141146 179.0491 181.0995 14.47315274  2262
CZ-6A DEB               
1 54303U 22151AW  22335.74378023  .00000105  00000+0  84999-4 0  9993
2 54303  98.8341 340.4969 0047681  35.4155 325.0165 14.08764353  2212
CZ-6A DEB               
1 54304U 22151AX  22335.46179306  .00000796  00000+0  48333-3 0  9993
2 54304  98.8355 340.2226 0046818  23.7704 336.5614 14.08623425  2178
CZ-6A DEB               
1 54305U 22151AY  22335.48134405  .00000210  00000+0  11180-3 0  9998
2 54305  98.8201 340.5972 0056239 129.9729 230.6407 14.22779610  2217
CZ-6A DEB               
1 54306U 22151AZ  22335.72852150  .00000287  00000+0  18618-3 0  9997
2 54306  98.8177 340.4185 0041194  26.1352 334.1886 14.09871561  2213
CZ-6A DEB               
1 54307U 22151BA  22335.69293201  .00004312  00000+0  14437-2 0  9997
2 54307  98.6185 339.9537 0131232 255.7419 102.9160 14.33106404  2245
CZ-6A DEB               
1 54308U 22151BB  22335.68436607  .00004246  00000+0  14204-2 0  9994
2 54308  98.6983 340.4353 0122794 251.9674 106.8099 14.33733273  2243
CZ-6A DEB               
1 54309U 22151BC  22335.72083974  .00000308  00000+0  19630-3 0  9999
2 54309  98.8171 340.4269 0038273  24.7134 335.5860 14.10428451  2214
CZ-6A DEB               
1 54310U 22151BD  22334.96429882  .00007310  00000+0  20827-2 0  9997
2 54310  98.6128 339.4312 0127948 234.8984 124.0155 14.40840466  2178
CZ-6A DEB               
1 54311U 22151BE  22335.57189400  .00004125  00000+0  12841-2 0  9993
2 54311  98.6982 340.4233 0127911 245.0248 113.7606 14.36898543  2235
CZ-6A DEB               
1 54312U 22151BF  22335.58919362  .00001473  00000+0  71161-3 0  9997
2 54312  98.9688 341.4872 0024159 273.0796  86.7615 14.20042011  2223
CZ-6A DEB               
1 54313U 22151BG  22335.70069661  .00005771  00000+0  17675-2 0  9994
2 54313  98.6949 340.5593 0125041 241.1314 117.7278 14.37698168  2256
CZ-6A DEB               
1 54314U 22151BH  22335.00360339  .00006699  00000+0  17438-2 0  9991
2 54314  98.6189 339.5788 0152894 239.8193 118.7777 14.43145246  2168
CZ-6A DEB               
1 54315U 22151BJ  22335.02487526  .00000261  00000+0  17298-3 0  9996
2 54315  98.8328 339.8040 0045337  40.4866 319.9663 14.09417225  2111
CZ-6A DEB               
1 54316U 22151BK  22334.95220851  .00000524  00000+0  32166-3 0  9997
2 54316  98.7970 339.5311 0042448  24.9569 335.3642 14.09549741  2117
CZ-6A DEB               
1 54317U 22151BL  22335.00344650  .00006677  00000+0  12728-2 0  9995
2 54317  98.7116 340.4577 0186240 226.0365 132.5342 14.53822554  2189
CZ-6A DEB               
1 54318U 22151BM  22335.27122942  .00000596  00000+0  37775-3 0  9997
2 54318  98.8160 339.8726 0055435  30.8087 329.6316 14.06957503  2148
CZ-6A DEB               
1 54319U 22151BN  22335.69111664  .00013753  00000+0  31693-2 0  9994
2 54319  98.6589 340.5407 0201487 250.7295 107.2003 14.43695294  2275
CZ-6A DEB               
1 54320U 22151BP  22335.27122626  .00000253  00000+0  21686-3 0  9993
2 54320  98.8422 339.5451 0136632   3.0310 357.1648 13.91180587  2130
CZ-6A DEB               
1 54321U 22151BQ  22335.01781021  .00000899  00000+0  29374-3 0  9994
2 54321  98.6881 339.7988 0127783 246.9189 111.8484 14.36604458  2157
CZ-6A DEB               
1 54322U 22151BR  22335.73170903  .00006450  00000+0  14418-2 0  9996
2 54322  98.7335 341.0841 0197781 245.7971 112.2436 14.45693257  2289
CZ-6A DEB               
1 54323U 22151BS  22335.56009750  .00000317  00000+0  21425-3 0  9992
2 54323  98.8081 340.1002 0056131  15.3674 344.9183 14.06631281  2203
CZ-6A DEB               
1 54324U 22151BT  22335.67405764  .00062419  00000+0  17677-2 0  9994
2 54324  98.6608 342.1241 0351417 213.0952 144.7835 14.92131884  2349
CZ-6A DEB               
1 54325U 22151BU  22335.77215059  .00000187  00000+0  12546-3 0  9997
2 54325  98.7846 340.3321 0034299  42.8460 317.5376 14.11845156  2235
CZ-6A DEB               
1 54326U 22151BV  22335.61417178  .00049461  00000+0  48453-2 0  9990
2 54326  99.0850 343.7222 0289279 238.9445 118.3065 14.65627060  2292
CZ-6A DEB               
1 54327U 22151BW  22335.75551004  .00000428  00000+0  27421-3 0  9996
2 54327  98.7886 340.2179 0051094  31.0975 329.3202 14.07927653  2219
CZ-6A DEB               
1 54328U 22151BX  22335.72542955  .00004516  00000+0  11086-2 0  9990
2 54328  98.7292 341.0623 0151873 228.0533 130.7632 14.46122016  2278
CZ-6A DEB               
1 54329U 22151BY  22335.75849282  .00002485  00000+0  56069-3 0  9991
2 54329  98.7364 341.2272 0169633 162.0835 198.6438 14.48757110  2285
CZ-6A DEB               
1 54330U 22151BZ  22335.76509616  .00001467  00000+0  72991-3 0  9999
2 54330  98.8027 340.6110 0063108 104.1140 256.7058 14.17502639  2233
CZ-6A DEB               
1 54331U 22151CA  22335.25409256  .00000472  00000+0  37336-3 0  9992
2 54331  98.7984 339.3149 0126598  35.8600 325.0977 13.92438031  2120
CZ-6A DEB               
1 54332U 22151CB  22335.00001960  .00001158  00000+0  59678-3 0  9991
2 54332  98.8004 339.8135 0043331  98.9148 261.6935 14.16635433  2137
CZ-6A DEB               
1 54333U 22151CC  22335.73646114  .00004317  00000+0  12337-2 0  9998
2 54333  98.7074 340.7506 0138595 239.5744 119.1688 14.40169216  2296
CZ-6A DEB               
1 54334U 22151CD  22335.67482718  .00004389  00000+0  12739-2 0  9995
2 54334  98.7090 340.6780 0136376 240.4494 118.3041 14.39589641  2285
CZ-6A DEB               
1 54335U 22151CE  22335.73905890  .00000632  00000+0  38389-3 0  9991
2 54335  98.7961 340.2814 0051508  50.1415 310.4269 14.09116467  2241
CZ-6A DEB               
1 54336U 22151CF  22335.78193607  .00000317  00000+0  21535-3 0  9997
2 54336  98.8079 340.2945 0061644  37.1202 323.4205 14.06023158  2255
CZ-6A DEB               
1 54337U 22151CG  22334.97870772  .00000126  00000+0  98759-4 0  9994
2 54337  98.8211 339.6351 0052257  30.3254 330.0921 14.07552592  2146
CZ-6A DEB               
1 54338U 22151CH  22335.73353085  .00000888  00000+0  52785-3 0  9996
2 54338  98.8305 340.4918 0043285  29.1261 331.2310 14.09520179  2250
CZ-6A DEB               
1 54339U 22151CJ  22335.73323420  .00000322  00000+0  20685-3 0  9994
2 54339  98.8076 340.3558 0044229  36.4133 324.0032 14.09531174  2251
CZ-6A DEB               
1 54340U 22151CK  22335.66239498  .00002584  00000+0  57307-3 0  9992
2 54340  98.7112 341.0410 0156124 211.1735 148.0127 14.50777350  2282
CZ-6A DEB               
1 54341U 22151CL  22335.47849889  .00000807  00000+0  41150-3 0  9998
2 54341  98.8055 340.3515 0051585 105.7682 254.9190 14.17801962  2201
CZ-6A DEB               
1 54342U 22151CM  22335.75691000  .00000073  00000+0  67537-4 0  9993
2 54342  98.7995 340.2779 0053229  38.4826 322.0120 14.07819516  2229
CZ-6A DEB               
1 54343U 22151CN  22335.73133857  .00000215  00000+0  14628-3 0  9993
2 54343  98.8138 340.3939 0042958  33.4300 326.9569 14.09666071  2226
CZ-6A DEB               
1 54344U 22151CP  22335.27514626 -.00000091  00000+0 -28754-4 0  9990
2 54344  98.8224 339.9039 0057470  35.1054 325.3881 14.06654564  2151
CZ-6A DEB               
1 54345U 22151CQ  22335.57670282  .00002905  00000+0  13188-2 0  9992
2 54345  98.7057 339.9673 0078389 280.4011  78.8338 14.20994363  2224
CZ-6A DEB               
1 54346U 22151CR  22335.76885354  .00003577  00000+0  84080-3 0  9998
2 54346  98.6514 340.7041 0154369 222.5297 136.3854 14.48019854  2290
CZ-6A DEB               
1 54347U 22151CS  22335.07202971  .00000305  00000+0  13528-3 0  9996
2 54347  98.7132 339.7062 0107133 266.9249  91.9668 14.27144463  2162
CZ-6A DEB               
1 54348U 22151CT  22335.86192105  .00000687  00000+0  26232-3 0  9990
2 54348  98.6945 340.5030 0107407 253.8248 105.1092 14.30892674  2287
CZ-6A DEB               
1 54349U 22151CU  22335.02843828  .00000475  00000+0  20736-3 0  9992
2 54349  98.7109 339.5885 0112600 273.3948  85.4356 14.25133750  2158
CZ-6A DEB               
1 54350U 22151CV  22335.76472625  .00000250  00000+0  10562-3 0  9995
2 54350  98.8160 341.1832 0069523 182.6640 177.4182 14.32877348  2273
CZ-6A DEB               
1 54351U 22151CW  22335.44402787  .00008451  00000+0  53602-2 0  9995
2 54351  99.0219 340.9235 0203812 324.8391  33.9460 13.94430785  2159
